{
  "type": "FeatureCollection",
  "features": [
    {
      "type": "Feature",
      "properties": {
        "model": "model_d",
        "valid_time": "2025-07-31 06:00:00"
      },
      "geometry": {
        "type": "LineString",
        "coordinates": [
          [
            118.36224365234375,
            31.27780532836914,
            300.0
          ],
          [
            118.3631591796875,
            31.287067413330078,
            250.0
          ],
          [
            118.36407470703125,
            31.29631805419922,
            200.0
          ],
          [
            118.364990234375,
            31.305572509765625,
            150.0
          ],
          [
            118.36590576171875,
            31.314834594726562,
            100.0
          ],
          [
            118.377685546875,
            31.32331085205078,
            100.0
          ],
          [
            118.37860107421875,
            31.332565307617188,
            100.0
          ],
          [
            118.3795166015625,
            31.34180450439453,
            100.0
          ],
          [
            118.38043212890625,
            31.35106658935547,
            100.0
          ],
          [
            118.3922119140625,
            31.359535217285156,
            100.0
          ],
          [
            118.39312744140625,
            31.368793487548828,
            100.0
          ],
          [
            118.39404296875,
            31.378047943115234,
            100.0
          ],
          [
            118.39495849609375,
            31.38730239868164,
            100.0
          ],
          [
            118.3958740234375,
            31.396564483642578,
            100.0
          ],
          [
            118.39682006835938,
            31.405811309814453,
            100.0
          ],
          [
            118.39773559570312,
            31.41507339477539,
            100.0
          ],
          [
            118.398681640625,
            31.424335479736328,
            100.0
          ],
          [
            118.39959716796875,
            31.433582305908203,
            100.0
          ],
          [
            118.4005126953125,
            31.44284439086914,
            100.0
          ],
          [
            118.40142822265625,
            31.452091217041016,
            100.0
          ],
          [
            118.40237426757812,
            31.461360931396484,
            100.0
          ],
          [
            118.40328979492188,
            31.47060775756836,
            150.0
          ],
          [
            118.40423583984375,
            31.479869842529297,
            200.0
          ],
          [
            118.4051513671875,
            31.489131927490234,
            200.0
          ],
          [
            118.40606689453125,
            31.498394012451172,
            150.0
          ],
          [
            118.406982421875,
            31.50763702392578,
            150.0
          ],
          [
            118.40792846679688,
            31.51689910888672,
            150.0
          ],
          [
            118.40884399414062,
            31.526161193847656,
            150.0
          ],
          [
            118.4097900390625,
            31.535415649414062,
            150.0
          ],
          [
            118.41070556640625,
            31.544677734375,
            150.0
          ],
          [
            118.41162109375,
            31.553932189941406,
            100.0
          ],
          [
            118.41256713867188,
            31.563194274902344,
            100.0
          ],
          [
            118.41348266601562,
            31.57244873046875,
            100.0
          ],
          [
            118.4144287109375,
            31.581710815429688,
            100.0
          ],
          [
            118.42620849609375,
            31.590171813964844,
            100.0
          ],
          [
            118.42715454101562,
            31.59943389892578,
            100.0
          ],
          [
            118.42807006835938,
            31.608680725097656,
            150.0
          ],
          [
            118.42901611328125,
            31.617935180664062,
            150.0
          ],
          [
            118.4407958984375,
            31.62641143798828,
            100.0
          ],
          [
            118.45263671875,
            31.634883880615234,
            100.0
          ],
          [
            118.45355224609375,
            31.64413833618164,
            100.0
          ],
          [
            118.45449829101562,
            31.653400421142578,
            100.0
          ],
          [
            118.46630859375,
            31.661876678466797,
            100.0
          ],
          [
            118.46722412109375,
            31.671123504638672,
            100.0
          ],
          [
            118.46817016601562,
            31.680377960205078,
            100.0
          ],
          [
            118.47998046875,
            31.68883514404297,
            100.0
          ],
          [
            118.4918212890625,
            31.697311401367188,
            100.0
          ],
          [
            118.50363159179688,
            31.705764770507812,
            100.0
          ],
          [
            118.50457763671875,
            31.71502685546875,
            100.0
          ],
          [
            118.5054931640625,
            31.724281311035156,
            100.0
          ],
          [
            118.50643920898438,
            31.733539581298828,
            100.0
          ],
          [
            118.50738525390625,
            31.7427978515625,
            100.0
          ],
          [
            118.50833129882812,
            31.752059936523438,
            100.0
          ],
          [
            118.50927734375,
            31.761314392089844,
            100.0
          ],
          [
            118.51019287109375,
            31.77057647705078,
            150.0
          ],
          [
            118.51116943359375,
            31.779830932617188,
            150.0
          ],
          [
            118.5120849609375,
            31.789108276367188,
            200.0
          ],
          [
            118.51303100585938,
            31.798355102539062,
            250.0
          ],
          [
            118.51397705078125,
            31.8076171875,
            300.0
          ],
          [
            118.51492309570312,
            31.816879272460938,
            350.0
          ],
          [
            118.515869140625,
            31.826133728027344,
            400.0
          ],
          [
            118.51681518554688,
            31.83538818359375,
            450.0
          ],
          [
            118.52865600585938,
            31.843852996826172,
            500.0
          ],
          [
            118.54049682617188,
            31.852306365966797,
            550.0
          ],
          [
            118.54144287109375,
            31.86156463623047,
            600.0
          ],
          [
            118.54238891601562,
            31.87082290649414,
            600.0
          ],
          [
            118.5433349609375,
            31.880084991455078,
            550.0
          ],
          [
            118.55517578125,
            31.88854217529297,
            500.0
          ],
          [
            118.55615234375,
            31.897811889648438,
            500.0
          ],
          [
            118.5679931640625,
            31.906265258789062,
            550.0
          ],
          [
            118.56893920898438,
            31.91552734375,
            600.0
          ],
          [
            118.580810546875,
            31.92397689819336,
            550.0
          ],
          [
            118.5926513671875,
            31.93242645263672,
            600.0
          ],
          [
            118.5936279296875,
            31.941696166992188,
            600.0
          ],
          [
            118.59457397460938,
            31.95096206665039,
            550.0
          ],
          [
            118.59552001953125,
            31.960205078125,
            600.0
          ],
          [
            118.59646606445312,
            31.969467163085938,
            600.0
          ],
          [
            118.597412109375,
            31.97873306274414,
            600.0
          ],
          [
            118.598388671875,
            31.98800277709961,
            600.0
          ],
          [
            118.61026000976562,
            31.996444702148438,
            600.0
          ],
          [
            118.6112060546875,
            32.005706787109375,
            600.0
          ],
          [
            118.62307739257812,
            32.014163970947266,
            600.0
          ],
          [
            118.6240234375,
            32.0234260559082,
            600.0
          ],
          [
            118.625,
            32.03268051147461,
            600.0
          ],
          [
            118.63687133789062,
            32.04113006591797,
            600.0
          ],
          [
            118.64877319335938,
            32.0495719909668,
            600.0
          ],
          [
            118.64971923828125,
            32.058834075927734,
            600.0
          ],
          [
            118.66162109375,
            32.06727981567383,
            550.0
          ],
          [
            118.67352294921875,
            32.07573699951172,
            600.0
          ],
          [
            118.68539428710938,
            32.08418655395508,
            600.0
          ],
          [
            118.69729614257812,
            32.092620849609375,
            600.0
          ],
          [
            118.6982421875,
            32.10187530517578,
            600.0
          ],
          [
            118.71014404296875,
            32.11032485961914,
            650.0
          ],
          [
            118.71112060546875,
            32.11957931518555,
            700.0
          ],
          [
            118.7230224609375,
            32.128021240234375,
            750.0
          ],
          [
            118.7239990234375,
            32.137290954589844,
            700.0
          ],
          [
            118.73590087890625,
            32.14571762084961,
            750.0
          ],
          [
            118.747802734375,
            32.15416717529297,
            750.0
          ],
          [
            118.75973510742188,
            32.1626091003418,
            700.0
          ],
          [
            118.77163696289062,
            32.171051025390625,
            700.0
          ],
          [
            118.7835693359375,
            32.179481506347656,
            700.0
          ],
          [
            118.7845458984375,
            32.18874740600586,
            650.0
          ],
          [
            118.7855224609375,
            32.19800567626953,
            600.0
          ],
          [
            118.79742431640625,
            32.2064323425293,
            600.0
          ],
          [
            118.80935668945312,
            32.214866638183594,
            600.0
          ],
          [
            118.8212890625,
            32.22331619262695,
            600.0
          ],
          [
            118.83322143554688,
            32.23173141479492,
            600.0
          ],
          [
            118.83419799804688,
            32.24099349975586,
            600.0
          ],
          [
            118.83517456054688,
            32.25026321411133,
            600.0
          ],
          [
            118.836181640625,
            32.259517669677734,
            550.0
          ],
          [
            118.837158203125,
            32.26877975463867,
            550.0
          ],
          [
            118.838134765625,
            32.278045654296875,
            600.0
          ],
          [
            118.839111328125,
            32.28730392456055,
            600.0
          ],
          [
            118.840087890625,
            32.29655838012695,
            600.0
          ],
          [
            118.841064453125,
            32.305824279785156,
            650.0
          ],
          [
            118.84207153320312,
            32.315086364746094,
            700.0
          ],
          [
            118.85400390625,
            32.323524475097656,
            650.0
          ],
          [
            118.865966796875,
            32.33193588256836,
            600.0
          ],
          [
            118.87789916992188,
            32.34036636352539,
            650.0
          ],
          [
            118.88986206054688,
            32.34878921508789,
            650.0
          ],
          [
            118.90179443359375,
            32.35723114013672,
            600.0
          ],
          [
            118.91278076171875,
            32.35638427734375,
            600.0
          ],
          [
            118.92474365234375,
            32.364803314208984,
            550.0
          ],
          [
            118.93670654296875,
            32.373226165771484,
            500.0
          ],
          [
            118.94866943359375,
            32.381649017333984,
            450.0
          ],
          [
            118.96063232421875,
            32.39007568359375,
            400.0
          ],
          [
            118.97259521484375,
            32.39848327636719,
            350.0
          ],
          [
            118.98455810546875,
            32.40690612792969,
            300.0
          ],
          [
            118.99652099609375,
            32.415313720703125,
            250.0
          ],
          [
            119.00851440429688,
            32.42374038696289,
            250.0
          ],
          [
            119.02047729492188,
            32.432151794433594,
            200.0
          ],
          [
            119.03146362304688,
            32.43130111694336,
            200.0
          ],
          [
            119.04342651367188,
            32.439697265625,
            200.0
          ],
          [
            119.05441284179688,
            32.43885803222656,
            250.0
          ],
          [
            119.06536865234375,
            32.438011169433594,
            200.0
          ],
          [
            119.07736206054688,
            32.44641876220703,
            200.0
          ],
          [
            119.08935546875,
            32.454811096191406,
            250.0
          ],
          [
            119.10134887695312,
            32.463233947753906,
            250.0
          ],
          [
            119.11334228515625,
            32.47163009643555,
            250.0
          ],
          [
            119.12533569335938,
            32.480037689208984,
            300.0
          ],
          [
            119.1373291015625,
            32.48843002319336,
            250.0
          ],
          [
            119.1483154296875,
            32.487571716308594,
            250.0
          ],
          [
            119.16030883789062,
            32.4959716796875,
            200.0
          ],
          [
            119.17230224609375,
            32.504371643066406,
            250.0
          ],
          [
            119.184326171875,
            32.512760162353516,
            250.0
          ],
          [
            119.19631958007812,
            32.52116775512695,
            250.0
          ],
          [
            119.20834350585938,
            32.529563903808594,
            300.0
          ],
          [
            119.2093505859375,
            32.5388298034668,
            300.0
          ],
          [
            119.22137451171875,
            32.547203063964844,
            350.0
          ],
          [
            119.222412109375,
            32.556480407714844,
            400.0
          ],
          [
            119.22344970703125,
            32.56574249267578,
            400.0
          ],
          [
            119.22445678710938,
            32.57499694824219,
            350.0
          ],
          [
            119.22549438476562,
            32.584266662597656,
            300.0
          ],
          [
            119.22653198242188,
            32.59352111816406,
            250.0
          ],
          [
            119.23855590820312,
            32.601905822753906,
            300.0
          ]
        ]
      }
    },
    {
      "type": "Feature",
      "properties": {
        "model": "model_e",
        "valid_time": "2025-07-31 06:00:00"
      },
      "geometry": {
        "type": "LineString",
        "coordinates": [
          [
            118.36224365234375,
            31.27780532836914,
            300.0
          ],
          [
            118.37399291992188,
            31.28628158569336,
            350.0
          ],
          [
            118.3857421875,
            31.29474639892578,
            400.0
          ],
          [
            118.39749145507812,
            31.30321502685547,
            400.0
          ],
          [
            118.40924072265625,
            31.31167221069336,
            400.0
          ],
          [
            118.4210205078125,
            31.320133209228516,
            450.0
          ],
          [
            118.43276977539062,
            31.328609466552734,
            500.0
          ],
          [
            118.44451904296875,
            31.337074279785156,
            500.0
          ],
          [
            118.45538330078125,
            31.336280822753906,
            500.0
          ],
          [
            118.46713256835938,
            31.344730377197266,
            500.0
          ],
          [
            118.47796630859375,
            31.343929290771484,
            500.0
          ],
          [
            118.48880004882812,
            31.34313201904297,
            500.0
          ],
          [
            118.50057983398438,
            31.351600646972656,
            500.0
          ],
          [
            118.51141357421875,
            31.350799560546875,
            500.0
          ],
          [
            118.52224731445312,
            31.35000991821289,
            500.0
          ],
          [
            118.5330810546875,
            31.34918975830078,
            500.0
          ],
          [
            118.5439453125,
            31.34839630126953,
            500.0
          ],
          [
            118.55474853515625,
            31.347591400146484,
            500.0
          ],
          [
            118.56561279296875,
            31.346786499023438,
            500.0
          ],
          [
            118.57644653320312,
            31.345977783203125,
            500.0
          ],
          [
            118.5872802734375,
            31.34518051147461,
            500.0
          ],
          [
            118.59811401367188,
            31.34436798095703,
            500.0
          ],
          [
            118.60894775390625,
            31.34356689453125,
            500.0
          ],
          [
            118.61978149414062,
            31.342742919921875,
            500.0
          ],
          [
            118.630615234375,
            31.341934204101562,
            500.0
          ],
          [
            118.64144897460938,
            31.341136932373047,
            500.0
          ],
          [
            118.65322875976562,
            31.349571228027344,
            500.0
          ],
          [
            118.6650390625,
            31.358001708984375,
            500.0
          ],
          [
            118.67681884765625,
            31.366443634033203,
            500.0
          ],
          [
            118.6885986328125,
            31.374893188476562,
            500.0
          ],
          [
            118.70040893554688,
            31.383319854736328,
            500.0
          ],
          [
            118.71221923828125,
            31.391754150390625,
            500.0
          ],
          [
            118.7239990234375,
            31.400188446044922,
            500.0
          ],
          [
            118.73580932617188,
            31.408626556396484,
            550.0
          ],
          [
            118.74761962890625,
            31.417068481445312,
            550.0
          ],
          [
            118.75942993164062,
            31.425487518310547,
            550.0
          ],
          [
            118.771240234375,
            31.433917999267578,
            550.0
          ],
          [
            118.78305053710938,
            31.442352294921875,
            550.0
          ],
          [
            118.79486083984375,
            31.450782775878906,
            550.0
          ],
          [
            118.80667114257812,
            31.45920181274414,
            550.0
          ],
          [
            118.8184814453125,
            31.46762466430664,
            550.0
          ],
          [
            118.830322265625,
            31.476058959960938,
            500.0
          ],
          [
            118.8421630859375,
            31.484481811523438,
            500.0
          ],
          [
            118.85397338867188,
            31.492904663085938,
            500.0
          ],
          [
            118.86578369140625,
            31.501319885253906,
            500.0
          ],
          [
            118.87762451171875,
            31.509727478027344,
            450.0
          ],
          [
            118.88946533203125,
            31.51815414428711,
            400.0
          ],
          [
            118.90130615234375,
            31.52657699584961,
            400.0
          ],
          [
            118.91314697265625,
            31.534984588623047,
            400.0
          ],
          [
            118.92498779296875,
            31.543411254882812,
            400.0
          ],
          [
            118.93682861328125,
            31.55181884765625,
            400.0
          ],
          [
            118.94866943359375,
            31.56023406982422,
            350.0
          ],
          [
            118.96051025390625,
            31.56863784790039,
            300.0
          ],
          [
            118.97235107421875,
            31.57705307006836,
            250.0
          ],
          [
            118.98422241210938,
            31.585464477539062,
            200.0
          ],
          [
            118.99609375,
            31.59387969970703,
            150.0
          ],
          [
            119.0079345703125,
            31.60228729248047,
            100.0
          ],
          [
            119.01980590820312,
            31.610675811767578,
            100.0
          ],
          [
            119.03167724609375,
            31.61910629272461,
            100.0
          ],
          [
            119.04351806640625,
            31.627506256103516,
            100.0
          ],
          [
            119.05538940429688,
            31.635894775390625,
            100.0
          ],
          [
            119.0672607421875,
            31.644302368164062,
            100.0
          ],
          [
            119.07913208007812,
            31.65270233154297,
            100.0
          ],
          [
            119.09100341796875,
            31.661102294921875,
            100.0
          ],
          [
            119.10287475585938,
            31.669506072998047,
            100.0
          ],
          [
            119.11474609375,
            31.677898406982422,
            100.0
          ],
          [
            119.12664794921875,
            31.686294555664062,
            100.0
          ],
          [
            119.13851928710938,
            31.694679260253906,
            100.0
          ],
          [
            119.15042114257812,
            31.703083038330078,
            100.0
          ],
          [
            119.16229248046875,
            31.711475372314453,
            100.0
          ],
          [
            119.1741943359375,
            31.719871520996094,
            100.0
          ],
          [
            119.18609619140625,
            31.728252410888672,
            100.0
          ],
          [
            119.197998046875,
            31.736652374267578,
            100.0
          ],
          [
            119.20989990234375,
            31.745033264160156,
            100.0
          ],
          [
            119.22177124023438,
            31.753421783447266,
            150.0
          ],
          [
            119.22280883789062,
            31.762683868408203,
            200.0
          ],
          [
            119.22381591796875,
            31.771923065185547,
            250.0
          ],
          [
            119.2357177734375,
            31.780319213867188,
            300.0
          ],
          [
            119.24761962890625,
            31.788700103759766,
            350.0
          ],
          [
            119.25955200195312,
            31.797077178955078,
            350.0
          ],
          [
            119.27145385742188,
            31.805458068847656,
            350.0
          ],
          [
            119.27249145507812,
            31.814720153808594,
            350.0
          ],
          [
            119.27349853515625,
            31.823970794677734,
            350.0
          ],
          [
            119.2745361328125,
            31.833232879638672,
            350.0
          ],
          [
            119.27557373046875,
            31.842479705810547,
            400.0
          ],
          [
            119.27658081054688,
            31.851734161376953,
            450.0
          ],
          [
            119.27761840820312,
            31.860980987548828,
            500.0
          ],
          [
            119.27862548828125,
            31.870243072509766,
            550.0
          ],
          [
            119.2796630859375,
            31.879497528076172,
            600.0
          ],
          [
            119.28070068359375,
            31.888751983642578,
            650.0
          ],
          [
            119.28173828125,
            31.89800262451172,
            700.0
          ],
          [
            119.28274536132812,
            31.907264709472656,
            750.0
          ],
          [
            119.28378295898438,
            31.91651153564453,
            800.0
          ],
          [
            119.2847900390625,
            31.925765991210938,
            800.0
          ],
          [
            119.28582763671875,
            31.935028076171875,
            850.0
          ],
          [
            119.286865234375,
            31.944271087646484,
            800.0
          ],
          [
            119.28790283203125,
            31.953529357910156,
            800.0
          ],
          [
            119.2889404296875,
            31.962779998779297,
            800.0
          ],
          [
            119.28994750976562,
            31.972042083740234,
            800.0
          ],
          [
            119.29098510742188,
            31.981304168701172,
            800.0
          ],
          [
            119.29202270507812,
            31.990550994873047,
            750.0
          ],
          [
            119.29302978515625,
            31.999805450439453,
            800.0
          ],
          [
            119.2940673828125,
            32.00906753540039,
            850.0
          ],
          [
            119.29510498046875,
            32.018314361572266,
            900.0
          ],
          [
            119.296142578125,
            32.027565002441406,
            950.0
          ],
          [
            119.29718017578125,
            32.036827087402344,
            1000.0
          ],
          [
            119.2982177734375,
            32.046085357666016,
            1000.0
          ],
          [
            119.29922485351562,
            32.055328369140625,
            1000.0
          ],
          [
            119.28933715820312,
            32.06546401977539,
            950.0
          ],
          [
            119.29037475585938,
            32.0747184753418,
            950.0
          ],
          [
            119.29141235351562,
            32.0839729309082,
            1000.0
          ],
          [
            119.29241943359375,
            32.09323501586914,
            1000.0
          ],
          [
            119.29345703125,
            32.10248947143555,
            1000.0
          ],
          [
            119.29449462890625,
            32.111751556396484,
            1000.0
          ],
          [
            119.2955322265625,
            32.121002197265625,
            1000.0
          ],
          [
            119.29656982421875,
            32.13026428222656,
            1000.0
          ],
          [
            119.297607421875,
            32.13951873779297,
            1000.0
          ],
          [
            119.29864501953125,
            32.148773193359375,
            950.0
          ],
          [
            119.29965209960938,
            32.15802764892578,
            900.0
          ],
          [
            119.28976440429688,
            32.16816329956055,
            850.0
          ],
          [
            119.290771484375,
            32.17741775512695,
            800.0
          ],
          [
            119.29180908203125,
            32.18667984008789,
            750.0
          ],
          [
            119.2928466796875,
            32.1959228515625,
            700.0
          ],
          [
            119.29388427734375,
            32.2051887512207,
            650.0
          ],
          [
            119.294921875,
            32.21444320678711,
            650.0
          ],
          [
            119.29595947265625,
            32.22369384765625,
            650.0
          ],
          [
            119.2969970703125,
            32.23295593261719,
            650.0
          ],
          [
            119.29803466796875,
            32.24221420288086,
            700.0
          ],
          [
            119.299072265625,
            32.2514762878418,
            700.0
          ],
          [
            119.30010986328125,
            32.260719299316406,
            650.0
          ],
          [
            119.2901611328125,
            32.2708625793457,
            700.0
          ],
          [
            119.29119873046875,
            32.28012466430664,
            750.0
          ],
          [
            119.292236328125,
            32.28938674926758,
            800.0
          ],
          [
            119.29327392578125,
            32.29862594604492,
            850.0
          ],
          [
            119.28335571289062,
            32.30876159667969,
            900.0
          ],
          [
            119.28439331054688,
            32.318023681640625,
            900.0
          ],
          [
            119.28543090820312,
            32.32727813720703,
            900.0
          ],
          [
            119.28646850585938,
            32.33654022216797,
            850.0
          ],
          [
            119.2874755859375,
            32.345802307128906,
            850.0
          ],
          [
            119.28851318359375,
            32.355072021484375,
            850.0
          ],
          [
            119.28955078125,
            32.36431121826172,
            850.0
          ],
          [
            119.29058837890625,
            32.373573303222656,
            850.0
          ],
          [
            119.2916259765625,
            32.38282775878906,
            900.0
          ],
          [
            119.29266357421875,
            32.39209747314453,
            900.0
          ],
          [
            119.293701171875,
            32.40135192871094,
            950.0
          ],
          [
            119.29473876953125,
            32.410614013671875,
            1000.0
          ],
          [
            119.2957763671875,
            32.41986846923828,
            1000.0
          ],
          [
            119.29681396484375,
            32.42911911010742,
            1000.0
          ],
          [
            119.2978515625,
            32.438385009765625,
            950.0
          ],
          [
            119.29888916015625,
            32.447654724121094,
            900.0
          ],
          [
            119.2999267578125,
            32.4569091796875,
            850.0
          ],
          [
            119.28997802734375,
            32.467044830322266,
            800.0
          ],
          [
            119.280029296875,
            32.4771728515625,
            850.0
          ],
          [
            119.27008056640625,
            32.4873161315918,
            800.0
          ],
          [
            119.2601318359375,
            32.497432708740234,
            850.0
          ],
          [
            119.25021362304688,
            32.50756072998047,
            800.0
          ],
          [
            119.240234375,
            32.517696380615234,
            750.0
          ],
          [
            119.23028564453125,
            32.527828216552734,
            700.0
          ],
          [
            119.2313232421875,
            32.53707504272461,
            650.0
          ],
          [
            119.23236083984375,
            32.54634475708008,
            600.0
          ],
          [
            119.2333984375,
            32.555606842041016,
            550.0
          ],
          [
            119.23443603515625,
            32.56487274169922,
            500.0
          ],
          [
            119.23544311523438,
            32.57411575317383,
            450.0
          ],
          [
            119.23648071289062,
            32.58338928222656,
            400.0
          ],
          [
            119.23751831054688,
            32.592647552490234,
            350.0
          ],
          [
            119.23855590820312,
            32.601905822753906,
            300.0
          ]
        ]
      }
    }
  ]
}