{
  "type": "FeatureCollection",
  "features": [
    {
      "type": "Feature",
      "properties": {
        "model": "model_d",
        "valid_time": "2025-07-31 06:00:00"
      },
      "geometry": {
        "type": "LineString",
        "coordinates": [
          [
            118.36224365234375,
            31.27780532836914,
            300.0
          ],
          [
            118.3631591796875,
            31.287067413330078,
            250.0
          ],
          [
            118.36407470703125,
            31.29631805419922,
            200.0
          ],
          [
            118.364990234375,
            31.305572509765625,
            150.0
          ],
          [
            118.36590576171875,
            31.314834594726562,
            100.0
          ],
          [
            118.377685546875,
            31.32331085205078,
            100.0
          ],
          [
            118.37860107421875,
            31.332565307617188,
            100.0
          ],
          [
            118.3795166015625,
            31.34180450439453,
            100.0
          ],
          [
            118.38043212890625,
            31.35106658935547,
            100.0
          ],
          [
            118.3922119140625,
            31.359535217285156,
            100.0
          ],
          [
            118.39312744140625,
            31.368793487548828,
            100.0
          ],
          [
            118.39404296875,
            31.378047943115234,
            100.0
          ],
          [
            118.39495849609375,
            31.38730239868164,
            100.0
          ],
          [
            118.3958740234375,
            31.396564483642578,
            150.0
          ],
          [
            118.39682006835938,
            31.405811309814453,
            100.0
          ],
          [
            118.39773559570312,
            31.41507339477539,
            100.0
          ],
          [
            118.40951538085938,
            31.42353057861328,
            100.0
          ],
          [
            118.42129516601562,
            31.4320068359375,
            100.0
          ],
          [
            118.42221069335938,
            31.441261291503906,
            100.0
          ],
          [
            118.42315673828125,
            31.450515747070312,
            150.0
          ],
          [
            118.424072265625,
            31.45977783203125,
            200.0
          ],
          [
            118.43585205078125,
            31.468238830566406,
            150.0
          ],
          [
            118.436767578125,
            31.477500915527344,
            100.0
          ],
          [
            118.43771362304688,
            31.48675537109375,
            150.0
          ],
          [
            118.43865966796875,
            31.49600601196289,
            200.0
          ],
          [
            118.450439453125,
            31.504474639892578,
            200.0
          ],
          [
            118.45135498046875,
            31.513729095458984,
            150.0
          ],
          [
            118.45230102539062,
            31.522991180419922,
            100.0
          ],
          [
            118.45321655273438,
            31.532245635986328,
            100.0
          ],
          [
            118.45416259765625,
            31.541507720947266,
            100.0
          ],
          [
            118.455078125,
            31.550762176513672,
            100.0
          ],
          [
            118.45602416992188,
            31.56002426147461,
            100.0
          ],
          [
            118.45697021484375,
            31.569278717041016,
            100.0
          ],
          [
            118.4578857421875,
            31.578533172607422,
            100.0
          ],
          [
            118.45883178710938,
            31.587787628173828,
            100.0
          ],
          [
            118.45974731445312,
            31.597049713134766,
            100.0
          ],
          [
            118.460693359375,
            31.606311798095703,
            100.0
          ],
          [
            118.46160888671875,
            31.61556625366211,
            100.0
          ],
          [
            118.46255493164062,
            31.624813079833984,
            100.0
          ],
          [
            118.4635009765625,
            31.634082794189453,
            100.0
          ],
          [
            118.46441650390625,
            31.64334487915039,
            100.0
          ],
          [
            118.46536254882812,
            31.652606964111328,
            100.0
          ],
          [
            118.46630859375,
            31.661876678466797,
            100.0
          ],
          [
            118.46722412109375,
            31.671123504638672,
            100.0
          ],
          [
            118.46817016601562,
            31.680377960205078,
            100.0
          ],
          [
            118.47998046875,
            31.68883514404297,
            100.0
          ],
          [
            118.4918212890625,
            31.697311401367188,
            100.0
          ],
          [
            118.49273681640625,
            31.706558227539062,
            100.0
          ],
          [
            118.50457763671875,
            31.71502685546875,
            100.0
          ],
          [
            118.5054931640625,
            31.724281311035156,
            100.0
          ],
          [
            118.50643920898438,
            31.733539581298828,
            100.0
          ],
          [
            118.50738525390625,
            31.7427978515625,
            100.0
          ],
          [
            118.50833129882812,
            31.752059936523438,
            100.0
          ],
          [
            118.50927734375,
            31.761314392089844,
            100.0
          ],
          [
            118.51019287109375,
            31.77057647705078,
            150.0
          ],
          [
            118.51116943359375,
            31.779830932617188,
            150.0
          ],
          [
            118.5120849609375,
            31.789108276367188,
            200.0
          ],
          [
            118.51303100585938,
            31.798355102539062,
            250.0
          ],
          [
            118.51397705078125,
            31.8076171875,
            300.0
          ],
          [
            118.51492309570312,
            31.816879272460938,
            350.0
          ],
          [
            118.52676391601562,
            31.825336456298828,
            400.0
          ],
          [
            118.5277099609375,
            31.834590911865234,
            450.0
          ],
          [
            118.52865600585938,
            31.843852996826172,
            500.0
          ],
          [
            118.54049682617188,
            31.852306365966797,
            550.0
          ],
          [
            118.54144287109375,
            31.86156463623047,
            600.0
          ],
          [
            118.54238891601562,
            31.87082290649414,
            550.0
          ],
          [
            118.5433349609375,
            31.880084991455078,
            500.0
          ],
          [
            118.55517578125,
            31.88854217529297,
            500.0
          ],
          [
            118.55615234375,
            31.897811889648438,
            550.0
          ],
          [
            118.5679931640625,
            31.906265258789062,
            600.0
          ],
          [
            118.56893920898438,
            31.91552734375,
            550.0
          ],
          [
            118.580810546875,
            31.92397689819336,
            600.0
          ],
          [
            118.5926513671875,
            31.93242645263672,
            550.0
          ],
          [
            118.5936279296875,
            31.941696166992188,
            600.0
          ],
          [
            118.59457397460938,
            31.95096206665039,
            550.0
          ],
          [
            118.59552001953125,
            31.960205078125,
            600.0
          ],
          [
            118.59646606445312,
            31.969467163085938,
            550.0
          ],
          [
            118.597412109375,
            31.97873306274414,
            600.0
          ],
          [
            118.598388671875,
            31.98800277709961,
            600.0
          ],
          [
            118.61026000976562,
            31.996444702148438,
            650.0
          ],
          [
            118.6112060546875,
            32.005706787109375,
            600.0
          ],
          [
            118.62307739257812,
            32.014163970947266,
            600.0
          ],
          [
            118.6240234375,
            32.0234260559082,
            650.0
          ],
          [
            118.625,
            32.03268051147461,
            600.0
          ],
          [
            118.63687133789062,
            32.04113006591797,
            650.0
          ],
          [
            118.64877319335938,
            32.0495719909668,
            650.0
          ],
          [
            118.64971923828125,
            32.058834075927734,
            700.0
          ],
          [
            118.66162109375,
            32.06727981567383,
            700.0
          ],
          [
            118.67352294921875,
            32.07573699951172,
            750.0
          ],
          [
            118.68539428710938,
            32.08418655395508,
            750.0
          ],
          [
            118.69729614257812,
            32.092620849609375,
            750.0
          ],
          [
            118.6982421875,
            32.10187530517578,
            750.0
          ],
          [
            118.71014404296875,
            32.11032485961914,
            700.0
          ],
          [
            118.71112060546875,
            32.11957931518555,
            750.0
          ],
          [
            118.7230224609375,
            32.128021240234375,
            750.0
          ],
          [
            118.7239990234375,
            32.137290954589844,
            750.0
          ],
          [
            118.73590087890625,
            32.14571762084961,
            750.0
          ],
          [
            118.747802734375,
            32.15416717529297,
            800.0
          ],
          [
            118.75973510742188,
            32.1626091003418,
            800.0
          ],
          [
            118.77163696289062,
            32.171051025390625,
            800.0
          ],
          [
            118.7835693359375,
            32.179481506347656,
            750.0
          ],
          [
            118.7845458984375,
            32.18874740600586,
            700.0
          ],
          [
            118.79644775390625,
            32.19717025756836,
            650.0
          ],
          [
            118.80838012695312,
            32.205604553222656,
            600.0
          ],
          [
            118.8203125,
            32.21404266357422,
            600.0
          ],
          [
            118.83221435546875,
            32.222469329833984,
            650.0
          ],
          [
            118.83322143554688,
            32.23173141479492,
            600.0
          ],
          [
            118.83419799804688,
            32.24099349975586,
            600.0
          ],
          [
            118.83517456054688,
            32.25026321411133,
            600.0
          ],
          [
            118.836181640625,
            32.259517669677734,
            650.0
          ],
          [
            118.837158203125,
            32.26877975463867,
            650.0
          ],
          [
            118.838134765625,
            32.278045654296875,
            600.0
          ],
          [
            118.839111328125,
            32.28730392456055,
            600.0
          ],
          [
            118.840087890625,
            32.29655838012695,
            600.0
          ],
          [
            118.841064453125,
            32.305824279785156,
            650.0
          ],
          [
            118.84207153320312,
            32.315086364746094,
            700.0
          ],
          [
            118.85400390625,
            32.323524475097656,
            650.0
          ],
          [
            118.865966796875,
            32.33193588256836,
            600.0
          ],
          [
            118.87789916992188,
            32.34036636352539,
            650.0
          ],
          [
            118.88986206054688,
            32.34878921508789,
            600.0
          ],
          [
            118.90179443359375,
            32.35723114013672,
            550.0
          ],
          [
            118.91278076171875,
            32.35638427734375,
            500.0
          ],
          [
            118.92474365234375,
            32.364803314208984,
            450.0
          ],
          [
            118.93670654296875,
            32.373226165771484,
            400.0
          ],
          [
            118.94866943359375,
            32.381649017333984,
            350.0
          ],
          [
            118.96063232421875,
            32.39007568359375,
            300.0
          ],
          [
            118.97259521484375,
            32.39848327636719,
            250.0
          ],
          [
            118.98455810546875,
            32.40690612792969,
            250.0
          ],
          [
            118.99652099609375,
            32.415313720703125,
            250.0
          ],
          [
            119.00851440429688,
            32.42374038696289,
            250.0
          ],
          [
            119.02047729492188,
            32.432151794433594,
            200.0
          ],
          [
            119.03146362304688,
            32.43130111694336,
            200.0
          ],
          [
            119.04342651367188,
            32.439697265625,
            200.0
          ],
          [
            119.05441284179688,
            32.43885803222656,
            250.0
          ],
          [
            119.06640625,
            32.44725799560547,
            250.0
          ],
          [
            119.078369140625,
            32.45567321777344,
            300.0
          ],
          [
            119.09036254882812,
            32.464088439941406,
            350.0
          ],
          [
            119.10235595703125,
            32.47248077392578,
            400.0
          ],
          [
            119.11434936523438,
            32.48089599609375,
            450.0
          ],
          [
            119.1263427734375,
            32.48929214477539,
            450.0
          ],
          [
            119.1373291015625,
            32.48843002319336,
            400.0
          ],
          [
            119.1483154296875,
            32.487571716308594,
            350.0
          ],
          [
            119.16030883789062,
            32.4959716796875,
            300.0
          ],
          [
            119.17230224609375,
            32.504371643066406,
            250.0
          ],
          [
            119.184326171875,
            32.512760162353516,
            250.0
          ],
          [
            119.19631958007812,
            32.52116775512695,
            250.0
          ],
          [
            119.20834350585938,
            32.529563903808594,
            250.0
          ],
          [
            119.2093505859375,
            32.5388298034668,
            250.0
          ],
          [
            119.22137451171875,
            32.547203063964844,
            250.0
          ],
          [
            119.222412109375,
            32.556480407714844,
            300.0
          ],
          [
            119.22344970703125,
            32.56574249267578,
            300.0
          ],
          [
            119.22445678710938,
            32.57499694824219,
            300.0
          ],
          [
            119.22549438476562,
            32.584266662597656,
            300.0
          ],
          [
            119.22653198242188,
            32.59352111816406,
            250.0
          ],
          [
            119.23855590820312,
            32.601905822753906,
            300.0
          ]
        ]
      }
    },
    {
      "type": "Feature",
      "properties": {
        "model": "model_e",
        "valid_time": "2025-07-31 06:00:00"
      },
      "geometry": {
        "type": "LineString",
        "coordinates": [
          [
            118.36224365234375,
            31.27780532836914,
            300.0
          ],
          [
            118.37399291992188,
            31.28628158569336,
            350.0
          ],
          [
            118.3857421875,
            31.29474639892578,
            400.0
          ],
          [
            118.39749145507812,
            31.30321502685547,
            450.0
          ],
          [
            118.40924072265625,
            31.31167221069336,
            450.0
          ],
          [
            118.4210205078125,
            31.320133209228516,
            450.0
          ],
          [
            118.43276977539062,
            31.328609466552734,
            450.0
          ],
          [
            118.44451904296875,
            31.337074279785156,
            500.0
          ],
          [
            118.45538330078125,
            31.336280822753906,
            500.0
          ],
          [
            118.4661865234375,
            31.335479736328125,
            500.0
          ],
          [
            118.47796630859375,
            31.343929290771484,
            500.0
          ],
          [
            118.48880004882812,
            31.34313201904297,
            500.0
          ],
          [
            118.50057983398438,
            31.351600646972656,
            500.0
          ],
          [
            118.51235961914062,
            31.360057830810547,
            500.0
          ],
          [
            118.52413940429688,
            31.36850357055664,
            550.0
          ],
          [
            118.53591918945312,
            31.376953125,
            550.0
          ],
          [
            118.5467529296875,
            31.376155853271484,
            550.0
          ],
          [
            118.55853271484375,
            31.38460922241211,
            550.0
          ],
          [
            118.5703125,
            31.393051147460938,
            550.0
          ],
          [
            118.58209228515625,
            31.401508331298828,
            550.0
          ],
          [
            118.59295654296875,
            31.40069580078125,
            550.0
          ],
          [
            118.604736328125,
            31.409137725830078,
            600.0
          ],
          [
            118.61651611328125,
            31.417606353759766,
            550.0
          ],
          [
            118.62832641601562,
            31.426036834716797,
            500.0
          ],
          [
            118.64013671875,
            31.434486389160156,
            500.0
          ],
          [
            118.65191650390625,
            31.442928314208984,
            500.0
          ],
          [
            118.66372680664062,
            31.45136260986328,
            500.0
          ],
          [
            118.675537109375,
            31.45980453491211,
            500.0
          ],
          [
            118.68731689453125,
            31.468238830566406,
            500.0
          ],
          [
            118.69915771484375,
            31.476673126220703,
            500.0
          ],
          [
            118.7109375,
            31.485111236572266,
            500.0
          ],
          [
            118.7227783203125,
            31.493545532226562,
            500.0
          ],
          [
            118.73458862304688,
            31.501995086669922,
            500.0
          ],
          [
            118.74639892578125,
            31.510421752929688,
            500.0
          ],
          [
            118.75823974609375,
            31.51885986328125,
            500.0
          ],
          [
            118.77005004882812,
            31.527294158935547,
            500.0
          ],
          [
            118.7818603515625,
            31.53571319580078,
            500.0
          ],
          [
            118.793701171875,
            31.544143676757812,
            500.0
          ],
          [
            118.8055419921875,
            31.552570343017578,
            450.0
          ],
          [
            118.8173828125,
            31.560993194580078,
            450.0
          ],
          [
            118.82919311523438,
            31.569427490234375,
            450.0
          ],
          [
            118.84103393554688,
            31.577842712402344,
            450.0
          ],
          [
            118.85287475585938,
            31.586273193359375,
            450.0
          ],
          [
            118.86471557617188,
            31.594680786132812,
            450.0
          ],
          [
            118.87655639648438,
            31.60311508178711,
            450.0
          ],
          [
            118.888427734375,
            31.611530303955078,
            400.0
          ],
          [
            118.9002685546875,
            31.619953155517578,
            350.0
          ],
          [
            118.912109375,
            31.628372192382812,
            300.0
          ],
          [
            118.9239501953125,
            31.63678741455078,
            250.0
          ],
          [
            118.93582153320312,
            31.64521026611328,
            200.0
          ],
          [
            118.94769287109375,
            31.65361785888672,
            150.0
          ],
          [
            118.95953369140625,
            31.662033081054688,
            100.0
          ],
          [
            118.97140502929688,
            31.670440673828125,
            100.0
          ],
          [
            118.9832763671875,
            31.678855895996094,
            100.0
          ],
          [
            118.99514770507812,
            31.68726348876953,
            100.0
          ],
          [
            119.00701904296875,
            31.69567108154297,
            100.0
          ],
          [
            119.01889038085938,
            31.704071044921875,
            100.0
          ],
          [
            119.03076171875,
            31.712486267089844,
            100.0
          ],
          [
            119.04263305664062,
            31.720890045166016,
            100.0
          ],
          [
            119.05450439453125,
            31.729297637939453,
            100.0
          ],
          [
            119.06640625,
            31.737689971923828,
            100.0
          ],
          [
            119.07827758789062,
            31.746097564697266,
            100.0
          ],
          [
            119.09017944335938,
            31.754493713378906,
            100.0
          ],
          [
            119.10205078125,
            31.762901306152344,
            100.0
          ],
          [
            119.11395263671875,
            31.77129364013672,
            100.0
          ],
          [
            119.1258544921875,
            31.77969741821289,
            100.0
          ],
          [
            119.13775634765625,
            31.788082122802734,
            100.0
          ],
          [
            119.149658203125,
            31.796478271484375,
            100.0
          ],
          [
            119.15066528320312,
            31.805740356445312,
            100.0
          ],
          [
            119.15167236328125,
            31.814979553222656,
            100.0
          ],
          [
            119.15267944335938,
            31.824249267578125,
            100.0
          ],
          [
            119.1536865234375,
            31.83350372314453,
            100.0
          ],
          [
            119.15472412109375,
            31.842750549316406,
            100.0
          ],
          [
            119.15573120117188,
            31.852008819580078,
            100.0
          ],
          [
            119.15673828125,
            31.861270904541016,
            100.0
          ],
          [
            119.15774536132812,
            31.87051773071289,
            100.0
          ],
          [
            119.15875244140625,
            31.879772186279297,
            100.0
          ],
          [
            119.1597900390625,
            31.889019012451172,
            100.0
          ],
          [
            119.16079711914062,
            31.89828109741211,
            100.0
          ],
          [
            119.16180419921875,
            31.907543182373047,
            100.0
          ],
          [
            119.162841796875,
            31.916790008544922,
            100.0
          ],
          [
            119.163818359375,
            31.926048278808594,
            100.0
          ],
          [
            119.16485595703125,
            31.935306549072266,
            100.0
          ],
          [
            119.16586303710938,
            31.944564819335938,
            100.0
          ],
          [
            119.1668701171875,
            31.953819274902344,
            150.0
          ],
          [
            119.16790771484375,
            31.96308135986328,
            150.0
          ],
          [
            119.16891479492188,
            31.972328186035156,
            200.0
          ],
          [
            119.169921875,
            31.981582641601562,
            150.0
          ],
          [
            119.17095947265625,
            31.99083709716797,
            100.0
          ],
          [
            119.17196655273438,
            32.000091552734375,
            100.0
          ],
          [
            119.1729736328125,
            32.00935363769531,
            100.0
          ],
          [
            119.17401123046875,
            32.01860809326172,
            100.0
          ],
          [
            119.17501831054688,
            32.027862548828125,
            100.0
          ],
          [
            119.176025390625,
            32.037113189697266,
            100.0
          ],
          [
            119.17706298828125,
            32.0463752746582,
            100.0
          ],
          [
            119.17807006835938,
            32.05563735961914,
            100.0
          ],
          [
            119.1790771484375,
            32.06489181518555,
            100.0
          ],
          [
            119.18011474609375,
            32.074153900146484,
            100.0
          ],
          [
            119.18112182617188,
            32.08340072631836,
            100.0
          ],
          [
            119.18212890625,
            32.0926628112793,
            100.0
          ],
          [
            119.18316650390625,
            32.101924896240234,
            100.0
          ],
          [
            119.1842041015625,
            32.11118698120117,
            100.0
          ],
          [
            119.18521118164062,
            32.12044143676758,
            100.0
          ],
          [
            119.18621826171875,
            32.12968826293945,
            100.0
          ],
          [
            119.187255859375,
            32.13895034790039,
            150.0
          ],
          [
            119.18826293945312,
            32.1482048034668,
            100.0
          ],
          [
            119.18927001953125,
            32.157466888427734,
            100.0
          ],
          [
            119.1903076171875,
            32.16671371459961,
            100.0
          ],
          [
            119.19134521484375,
            32.17597579956055,
            100.0
          ],
          [
            119.19235229492188,
            32.185237884521484,
            100.0
          ],
          [
            119.193359375,
            32.19449234008789,
            100.0
          ],
          [
            119.19439697265625,
            32.2037467956543,
            100.0
          ],
          [
            119.1954345703125,
            32.21300506591797,
            100.0
          ],
          [
            119.19644165039062,
            32.22227096557617,
            100.0
          ],
          [
            119.19744873046875,
            32.23152542114258,
            100.0
          ],
          [
            119.198486328125,
            32.240779876708984,
            100.0
          ],
          [
            119.19952392578125,
            32.25004959106445,
            100.0
          ],
          [
            119.20053100585938,
            32.25929641723633,
            100.0
          ],
          [
            119.2015380859375,
            32.268558502197266,
            150.0
          ],
          [
            119.20257568359375,
            32.27781677246094,
            100.0
          ],
          [
            119.20361328125,
            32.28707504272461,
            100.0
          ],
          [
            119.20462036132812,
            32.29633712768555,
            100.0
          ],
          [
            119.20565795898438,
            32.305599212646484,
            150.0
          ],
          [
            119.2066650390625,
            32.31485366821289,
            100.0
          ],
          [
            119.20770263671875,
            32.3241081237793,
            100.0
          ],
          [
            119.208740234375,
            32.333377838134766,
            100.0
          ],
          [
            119.20974731445312,
            32.34263229370117,
            100.0
          ],
          [
            119.21078491210938,
            32.35189437866211,
            100.0
          ],
          [
            119.2117919921875,
            32.361148834228516,
            100.0
          ],
          [
            119.21282958984375,
            32.37040328979492,
            100.0
          ],
          [
            119.2138671875,
            32.37966537475586,
            150.0
          ],
          [
            119.21487426757812,
            32.388919830322266,
            150.0
          ],
          [
            119.21591186523438,
            32.3981819152832,
            100.0
          ],
          [
            119.2169189453125,
            32.40744400024414,
            150.0
          ],
          [
            119.21795654296875,
            32.41670608520508,
            100.0
          ],
          [
            119.218994140625,
            32.425968170166016,
            100.0
          ],
          [
            119.22003173828125,
            32.43522262573242,
            100.0
          ],
          [
            119.22103881835938,
            32.44448471069336,
            100.0
          ],
          [
            119.22207641601562,
            32.45375442504883,
            150.0
          ],
          [
            119.22308349609375,
            32.46299362182617,
            100.0
          ],
          [
            119.22412109375,
            32.47226333618164,
            100.0
          ],
          [
            119.22515869140625,
            32.48151779174805,
            150.0
          ],
          [
            119.2261962890625,
            32.490787506103516,
            100.0
          ],
          [
            119.22720336914062,
            32.50004196166992,
            100.0
          ],
          [
            119.22824096679688,
            32.50930404663086,
            100.0
          ],
          [
            119.22927856445312,
            32.5185661315918,
            100.0
          ],
          [
            119.23028564453125,
            32.527828216552734,
            100.0
          ],
          [
            119.2313232421875,
            32.53707504272461,
            100.0
          ],
          [
            119.23236083984375,
            32.54634475708008,
            100.0
          ],
          [
            119.2333984375,
            32.555606842041016,
            100.0
          ],
          [
            119.23443603515625,
            32.56487274169922,
            150.0
          ],
          [
            119.23544311523438,
            32.57411575317383,
            200.0
          ],
          [
            119.23648071289062,
            32.58338928222656,
            250.0
          ],
          [
            119.23751831054688,
            32.592647552490234,
            300.0
          ],
          [
            119.23855590820312,
            32.601905822753906,
            300.0
          ]
        ]
      }
    }
  ]
}